{
    "links": {
        "self": "http://www.neowsapp.com/rest/v1/neo/3758268?api_key=iIulBulltgU6a56xZRHN4H3l9WmuAYTsLGpBGhQ2"
    },
    "id": "3758268",
    "neo_reference_id": "3758268",
    "name": "(2016 QZ44)",
    "designation": "2016 QZ44",
    "nasa_jpl_url": "http://ssd.jpl.nasa.gov/sbdb.cgi?sstr=3758268",
    "absolute_magnitude_h": 23.9,
    "estimated_diameter": {
        "kilometers": {
            "estimated_diameter_min": 0.04411182,
            "estimated_diameter_max": 0.0986370281
        },
        "meters": {
            "estimated_diameter_min": 44.1118199997,
            "estimated_diameter_max": 98.6370281305
        },
        "miles": {
            "estimated_diameter_min": 0.0274098057,
            "estimated_diameter_max": 0.0612901888
        },
        "feet": {
            "estimated_diameter_min": 144.7238235278,
            "estimated_diameter_max": 323.6123073718
        }
    },
    "is_potentially_hazardous_asteroid": false,
    "close_approach_data": [
        {
            "close_approach_date": "2016-08-02",
            "close_approach_date_full": "2016-Aug-02 04:21",
            "epoch_date_close_approach": 1470111660000,
            "relative_velocity": {
                "kilometers_per_second": "6.0540675471",
                "kilometers_per_hour": "21794.6431696422",
                "miles_per_hour": "13542.3436961591"
            },
            "miss_distance": {
                "astronomical": "0.1534377006",
                "lunar": "59.6872655334",
                "kilometers": "22953953.187457722",
                "miles": "14262925.1300596836"
            },
            "orbiting_body": "Earth"
        }
    ],
    "orbital_data": {
        "orbit_id": "4",
        "orbit_determination_date": "2017-04-06 08:24:18",
        "first_observation_date": "2016-08-30",
        "last_observation_date": "2016-09-23",
        "data_arc_in_days": 24,
        "observations_used": 19,
        "orbit_uncertainty": "7",
        "minimum_orbit_intersection": ".142719",
        "jupiter_tisserand_invariant": "4.067",
        "epoch_osculation": "2459000.5",
        "eccentricity": ".3366462573085045",
        "semi_major_axis": "1.736478861338419",
        "inclination": "10.31106124404154",
        "ascending_node_longitude": "319.2204603563044",
        "orbital_period": "835.8005992731858",
        "perihelion_distance": "1.151899751773507",
        "perihelion_argument": "344.4624898638213",
        "aphelion_distance": "2.321057970903332",
        "perihelion_time": "2459264.244080538360",
        "mean_anomaly": "246.3988981625801",
        "mean_motion": ".4307247450086263",
        "equinox": "J2000",
        "orbit_class": {
            "orbit_class_type": "AMO",
            "orbit_class_description": "Near-Earth asteroid orbits similar to that of 1221 Amor",
            "orbit_class_range": "1.017 AU < q (perihelion) < 1.3 AU"
        }
    },
    "is_sentry_object": false
}